[{"OBJECT_NAME":"HAIYANG-1B","OBJECT_ID":"2007-010A","EPOCH":"2026-03-09T22:15:19.251360","MEAN_MOTION":14.3099952,"ECCENTRICITY":0.00143047,"INCLINATION":98.343,"RA_OF_ASC_NODE":54.6595,"ARG_OF_PERICENTER":132.0498,"MEAN_ANOMALY":228.1905,"EPHEMERIS_TYPE":0,"CLASSIFICATION_TYPE":"U","NORAD_CAT_ID":31113,"ELEMENT_SET_NO":999,"REV_AT_EPOCH":98643,"BSTAR":7.2604842e-5,"MEAN_MOTION_DOT":1.5e-6,"MEAN_MOTION_DDOT":0},{"OBJECT_NAME":"CZ-6A DEB","OBJECT_ID":"2024-140EH","EPOCH":"2026-03-09T14:33:56.572992","MEAN_MOTION":14.50931247,"ECCENTRICITY":0.0099098,"INCLINATION":89.0059,"RA_OF_ASC_NODE":283.294,"ARG_OF_PERICENTER":246.6845,"MEAN_ANOMALY":112.3911,"EPHEMERIS_TYPE":0,"CLASSIFICATION_TYPE":"U","NORAD_CAT_ID":60758,"ELEMENT_SET_NO":999,"REV_AT_EPOCH":8347,"BSTAR":0.00014068,"MEAN_MOTION_DOT":6.08e-6,"MEAN_MOTION_DDOT":0}]
